CCSDS_OMM_VERS = 2.0
CREATION_DATE  = 
ORIGINATOR     = 

OBJECT_NAME    = SL-3 R/B
OBJECT_ID      = 1982-079B
CENTER_NAME    = EARTH
REF_FRAME      = TEME
TIME_SYSTEM    = UTC
MEAN_ELEMENT_THEORY = SGP/SGP4

EPOCH          = 2026-03-14T14:07:24.913920
MEAN_MOTION    = 15.24881023
ECCENTRICITY   = .00252549
INCLINATION    = 81.1481
RA_OF_ASC_NODE = 187.2933
ARG_OF_PERICENTER = 148.4365
MEAN_ANOMALY   = 211.8390

EPHEMERIS_TYPE = 0
CLASSIFICATION_TYPE = U
NORAD_CAT_ID   = 13403
ELEMENT_SET_NO = 999
REV_AT_EPOCH   = 37844
BSTAR          = .38219414E-3
MEAN_MOTION_DOT = .9617E-4
MEAN_MOTION_DDOT = 0

CCSDS_OMM_VERS = 2.0
CREATION_DATE  = 
ORIGINATOR     = 

OBJECT_NAME    = SL-14 R/B
OBJECT_ID      = 1982-092B
CENTER_NAME    = EARTH
REF_FRAME      = TEME
TIME_SYSTEM    = UTC
MEAN_ELEMENT_THEORY = SGP/SGP4

EPOCH          = 2026-03-14T15:23:25.487808
MEAN_MOTION    = 14.86671785
ECCENTRICITY   = .00188211
INCLINATION    = 82.5685
RA_OF_ASC_NODE = 136.7682
ARG_OF_PERICENTER = 285.9489
MEAN_ANOMALY   = 226.5104

EPHEMERIS_TYPE = 0
CLASSIFICATION_TYPE = U
NORAD_CAT_ID   = 13553
ELEMENT_SET_NO = 999
REV_AT_EPOCH   = 32966
BSTAR          = .55415454E-4
MEAN_MOTION_DOT = .518E-5
MEAN_MOTION_DDOT = 0

CCSDS_OMM_VERS = 2.0
CREATION_DATE  = 
ORIGINATOR     = 

OBJECT_NAME    = SL-3 R/B
OBJECT_ID      = 1983-010B
CENTER_NAME    = EARTH
REF_FRAME      = TEME
TIME_SYSTEM    = UTC
MEAN_ELEMENT_THEORY = SGP/SGP4

EPOCH          = 2026-03-14T05:24:53.456544
MEAN_MOTION    = 15.46531792
ECCENTRICITY   = .00176657
INCLINATION    = 81.1059
RA_OF_ASC_NODE = 356.6865
ARG_OF_PERICENTER = 36.1797
MEAN_ANOMALY   = 324.0639

EPHEMERIS_TYPE = 0
CLASSIFICATION_TYPE = U
NORAD_CAT_ID   = 13819
ELEMENT_SET_NO = 999
REV_AT_EPOCH   = 35864
BSTAR          = .38299544E-3
MEAN_MOTION_DOT = .19187E-3
MEAN_MOTION_DDOT = 0

CCSDS_OMM_VERS = 2.0
CREATION_DATE  = 
ORIGINATOR     = 

OBJECT_NAME    = SL-3 R/B
OBJECT_ID      = 1983-075B
CENTER_NAME    = EARTH
REF_FRAME      = TEME
TIME_SYSTEM    = UTC
MEAN_ELEMENT_THEORY = SGP/SGP4

EPOCH          = 2026-03-14T13:33:53.095104
MEAN_MOTION    = 15.38546539
ECCENTRICITY   = .00205814
INCLINATION    = 97.6141
RA_OF_ASC_NODE = 78.3274
ARG_OF_PERICENTER = 207.3916
MEAN_ANOMALY   = 152.6245

EPHEMERIS_TYPE = 0
CLASSIFICATION_TYPE = U
NORAD_CAT_ID   = 14208
ELEMENT_SET_NO = 999
REV_AT_EPOCH   = 33090
BSTAR          = .38863679E-3
MEAN_MOTION_DOT = .14816E-3
MEAN_MOTION_DDOT = 0

CCSDS_OMM_VERS = 2.0
CREATION_DATE  = 
ORIGINATOR     = 

OBJECT_NAME    = COSMOS 1536
OBJECT_ID      = 1984-013A
CENTER_NAME    = EARTH
REF_FRAME      = TEME
TIME_SYSTEM    = UTC
MEAN_ELEMENT_THEORY = SGP/SGP4

EPOCH          = 2026-03-14T13:53:55.635360
MEAN_MOTION    = 15.23896288
ECCENTRICITY   = .00124355
INCLINATION    = 82.5424
RA_OF_ASC_NODE = 102.9892
ARG_OF_PERICENTER = 264.0292
MEAN_ANOMALY   = 95.9528

EPHEMERIS_TYPE = 0
CLASSIFICATION_TYPE = U
NORAD_CAT_ID   = 14699
ELEMENT_SET_NO = 999
REV_AT_EPOCH   = 27336
BSTAR          = .34209659E-3
MEAN_MOTION_DOT = .8308E-4
MEAN_MOTION_DDOT = 0

CCSDS_OMM_VERS = 2.0
CREATION_DATE  = 
ORIGINATOR     = 

OBJECT_NAME    = SL-14 R/B
OBJECT_ID      = 1984-027B
CENTER_NAME    = EARTH
REF_FRAME      = TEME
TIME_SYSTEM    = UTC
MEAN_ELEMENT_THEORY = SGP/SGP4

EPOCH          = 2026-03-14T11:22:41.420064
MEAN_MOTION    = 14.85982160
ECCENTRICITY   = .00169785
INCLINATION    = 82.5392
RA_OF_ASC_NODE = 240.5243
ARG_OF_PERICENTER = 321.4156
MEAN_ANOMALY   = 38.5846

EPHEMERIS_TYPE = 0
CLASSIFICATION_TYPE = U
NORAD_CAT_ID   = 14820
ELEMENT_SET_NO = 999
REV_AT_EPOCH   = 24834
BSTAR          = .6635418E-4
MEAN_MOTION_DOT = .605E-5
MEAN_MOTION_DDOT = 0

CCSDS_OMM_VERS = 2.0
CREATION_DATE  = 
ORIGINATOR     = 

OBJECT_NAME    = SL-8 R/B
OBJECT_ID      = 1985-006B
CENTER_NAME    = EARTH
REF_FRAME      = TEME
TIME_SYSTEM    = UTC
MEAN_ELEMENT_THEORY = SGP/SGP4

EPOCH          = 2026-03-14T14:21:50.211648
MEAN_MOTION    = 14.37787266
ECCENTRICITY   = .00182369
INCLINATION    = 74.0432
RA_OF_ASC_NODE = 252.1146
ARG_OF_PERICENTER = 168.6544
MEAN_ANOMALY   = 254.4748

EPHEMERIS_TYPE = 0
CLASSIFICATION_TYPE = U
NORAD_CAT_ID   = 15483
ELEMENT_SET_NO = 999
REV_AT_EPOCH   = 15473
BSTAR          = .14524293E-3
MEAN_MOTION_DOT = .412E-5
MEAN_MOTION_DDOT = 0

CCSDS_OMM_VERS = 2.0
CREATION_DATE  = 
ORIGINATOR     = 

OBJECT_NAME    = SL-12 R/B(2)
OBJECT_ID      = 1985-042D
CENTER_NAME    = EARTH
REF_FRAME      = TEME
TIME_SYSTEM    = UTC
MEAN_ELEMENT_THEORY = SGP/SGP4

EPOCH          = 2026-03-14T11:42:47.187360
MEAN_MOTION    = 14.21983843
ECCENTRICITY   = .00330622
INCLINATION    = 71.1063
RA_OF_ASC_NODE = 77.5901
ARG_OF_PERICENTER = 120.2340
MEAN_ANOMALY   = 353.9115

EPHEMERIS_TYPE = 0
CLASSIFICATION_TYPE = U
NORAD_CAT_ID   = 15772
ELEMENT_SET_NO = 999
REV_AT_EPOCH   = 11507
BSTAR          = .95348158E-4
MEAN_MOTION_DOT = .164E-5
MEAN_MOTION_DDOT = 0

CCSDS_OMM_VERS = 2.0
CREATION_DATE  = 
ORIGINATOR     = 

OBJECT_NAME    = SL-14 R/B
OBJECT_ID      = 1985-069B
CENTER_NAME    = EARTH
REF_FRAME      = TEME
TIME_SYSTEM    = UTC
MEAN_ELEMENT_THEORY = SGP/SGP4

EPOCH          = 2026-03-14T14:12:33.682464
MEAN_MOTION    = 14.86439745
ECCENTRICITY   = .00189195
INCLINATION    = 82.5293
RA_OF_ASC_NODE = 20.3239
ARG_OF_PERICENTER = 171.3707
MEAN_ANOMALY   = 188.7839

EPHEMERIS_TYPE = 0
CLASSIFICATION_TYPE = U
NORAD_CAT_ID   = 15945
ELEMENT_SET_NO = 999
REV_AT_EPOCH   = 17356
BSTAR          = .7090588E-4
MEAN_MOTION_DOT = .652E-5
MEAN_MOTION_DDOT = 0

CCSDS_OMM_VERS = 2.0
CREATION_DATE  = 
ORIGINATOR     = 

OBJECT_NAME    = SL-16 R/B
OBJECT_ID      = 1985-097B
CENTER_NAME    = EARTH
REF_FRAME      = TEME
TIME_SYSTEM    = UTC
MEAN_ELEMENT_THEORY = SGP/SGP4

EPOCH          = 2026-03-14T14:15:48.434976
MEAN_MOTION    = 14.16598173
ECCENTRICITY   = .00097701
INCLINATION    = 71.0018
RA_OF_ASC_NODE = 130.2292
ARG_OF_PERICENTER = 253.6938
MEAN_ANOMALY   = 258.5487

EPHEMERIS_TYPE = 0
CLASSIFICATION_TYPE = U
NORAD_CAT_ID   = 16182
ELEMENT_SET_NO = 999
REV_AT_EPOCH   = 8792
BSTAR          = .22352985E-4
MEAN_MOTION_DOT = -.3E-7
MEAN_MOTION_DDOT = 0

CCSDS_OMM_VERS = 2.0
CREATION_DATE  = 
ORIGINATOR     = 

OBJECT_NAME    = SL-14 R/B
OBJECT_ID      = 1986-006B
CENTER_NAME    = EARTH
REF_FRAME      = TEME
TIME_SYSTEM    = UTC
MEAN_ELEMENT_THEORY = SGP/SGP4

EPOCH          = 2026-03-14T13:37:42.384288
MEAN_MOTION    = 14.86823027
ECCENTRICITY   = .00750924
INCLINATION    = 82.5236
RA_OF_ASC_NODE = 255.1447
ARG_OF_PERICENTER = 256.2867
MEAN_ANOMALY   = 102.9982

EPHEMERIS_TYPE = 0
CLASSIFICATION_TYPE = U
NORAD_CAT_ID   = 16496
ELEMENT_SET_NO = 999
REV_AT_EPOCH   = 14993
BSTAR          = .89507699E-4
MEAN_MOTION_DOT = .865E-5
MEAN_MOTION_DDOT = 0

CCSDS_OMM_VERS = 2.0
CREATION_DATE  = 
ORIGINATOR     = 

OBJECT_NAME    = COSMOS 1743
OBJECT_ID      = 1986-034A
CENTER_NAME    = EARTH
REF_FRAME      = TEME
TIME_SYSTEM    = UTC
MEAN_ELEMENT_THEORY = SGP/SGP4

EPOCH          = 2026-03-14T12:30:16.490880
MEAN_MOTION    = 15.58934649
ECCENTRICITY   = .00016932
INCLINATION    = 82.5290
RA_OF_ASC_NODE = 68.7583
ARG_OF_PERICENTER = 244.7461
MEAN_ANOMALY   = 115.3620

EPHEMERIS_TYPE = 0
CLASSIFICATION_TYPE = U
NORAD_CAT_ID   = 16719
ELEMENT_SET_NO = 999
REV_AT_EPOCH   = 18100
BSTAR          = .62793788E-3
MEAN_MOTION_DOT = .4894E-3
MEAN_MOTION_DDOT = 0

